{"type": "FeatureCollection", "features": [ {"type": "Feature", "properties": {"norad_id": 38779, "name": "GSAT-10 (GAGAN/PRN 128)", "group": "gnss", "lat": 0.05838155986009962, "lon": -13.767555050886273, "alt_km": 35793.382342242214, "timestamp": "2025-12-21T11:31:43.097050+00:00", "meta": {"OBJECT_NAME": "GSAT-10 (GAGAN/PRN 128)", "OBJECT_ID": "2012-051B", "EPOCH": "2025-12-20T23:53:50.728128", "MEAN_MOTION": 1.00272108, "ECCENTRICITY": 0.0002397, "INCLINATION": 0.072, "RA_OF_ASC_NODE": 264.3675, "ARG_OF_PERICENTER": 218.873, "MEAN_ANOMALY": 48.0729, "EPHEMERIS_TYPE": 0, "CLASSIFICATION_TYPE": "U", "NORAD_CAT_ID": 38779, "ELEMENT_SET_NO": 999, "REV_AT_EPOCH": 4831, "BSTAR": 0, "MEAN_MOTION_DOT": -1.42e-06, "MEAN_MOTION_DDOT": 0}, "tle": {"line1": "1 38779U 12051B   25354.99572602 -.00000142  00000+0  00000+0 0  9998", "line2": "2 38779   0.0720 264.3675 0002397 218.8730  48.0729  1.00272108 48315"}}, "geometry": {"type": "Point", "coordinates": [-13.767555050886273, 0.05838155986009962]}}, {"type": "Feature", "properties": {"norad_id": 38833, "name": "GPS BIIF-3  (PRN 24)", "group": "gnss", "lat": 47.184847209194146, "lon": -82.02920926407846, "alt_km": 19871.585043012936, "timestamp": "2025-12-21T11:31:43.097065+00:00", "meta": {"OBJECT_NAME": "GPS BIIF-3  (PRN 24)", "OBJECT_ID": "2012-053A", "EPOCH": "2025-12-19T19:56:51.793728", "MEAN_MOTION": 2.0056508, "ECCENTRICITY": 0.01760073, "INCLINATION": 53.5591, "RA_OF_ASC_NODE": 150.9483, "ARG_OF_PERICENTER": 64.0988, "MEAN_ANOMALY": 297.6852, "EPHEMERIS_TYPE": 0, "CLASSIFICATION_TYPE": "U", "NORAD_CAT_ID": 38833, "ELEMENT_SET_NO": 999, "REV_AT_EPOCH": 9584, "BSTAR": 0, "MEAN_MOTION_DOT": 5.6e-07, "MEAN_MOTION_DDOT": 0}, "tle": {"line1": "1 38833U 12053A   25353.83115502  .00000056  00000+0  00000+0 0  9998", "line2": "2 38833  53.5591 150.9483 0176007  64.0988 297.6852  2.00565080 95842"}}, "geometry": {"type": "Point", "coordinates": [-82.02920926407846, 47.184847209194146]}}, {"type": "Feature", "properties": {"norad_id": 38857, "name": "GSAT0103 (GALILEO-FM3)", "group": "gnss", "lat": -17.024110486342767, "lon": -61.53009823942125, "alt_km": 23221.545013513103, "timestamp": "2025-12-21T11:31:43.097079+00:00", "meta": {"OBJECT_NAME": "GSAT0103 (GALILEO-FM3)", "OBJECT_ID": "2012-055A", "EPOCH": "2025-12-18T05:17:11.481792", "MEAN_MOTION": 1.70473412, "ECCENTRICITY": 0.00028558, "INCLINATION": 55.6954, "RA_OF_ASC_NODE": 106.5161, "ARG_OF_PERICENTER": 269.0808, "MEAN_ANOMALY": 90.8455, "EPHEMERIS_TYPE": 0, "CLASSIFICATION_TYPE": "U", "NORAD_CAT_ID": 38857, "ELEMENT_SET_NO": 999, "REV_AT_EPOCH": 8192, "BSTAR": 0, "MEAN_MOTION_DOT": -7e-08, "MEAN_MOTION_DDOT": 0}, "tle": {"line1": "1 38857U 12055A   25352.22027178 -.00000007  00000+0  00000+0 0  9996", "line2": "2 38857  55.6954 106.5161 0002855 269.0808  90.8455  1.70473412 81920"}}, "geometry": {"type": "Point", "coordinates": [-61.53009823942125, -17.024110486342767]}}, {"type": "Feature", "properties": {"norad_id": 38953, "name": "BEIDOU-2 G6 (C02)", "group": "gnss", "lat": -3.978422555240808, "lon": -12.867597992325809, "alt_km": 35755.01161605043, "timestamp": "2025-12-21T11:31:43.097090+00:00", "meta": {"OBJECT_NAME": "BEIDOU-2 G6 (C02)", "OBJECT_ID": "2012-059A", "EPOCH": "2025-12-21T01:36:53.216640", "MEAN_MOTION": 1.00268834, "ECCENTRICITY": 0.000827, "INCLINATION": 3.9692, "RA_OF_ASC_NODE": 75.4251, "ARG_OF_PERICENTER": 292.3777, "MEAN_ANOMALY": 190.2509, "EPHEMERIS_TYPE": 0, "CLASSIFICATION_TYPE": "U", "NORAD_CAT_ID": 38953, "ELEMENT_SET_NO": 999, "REV_AT_EPOCH": 4812, "BSTAR": 0, "MEAN_MOTION_DOT": -1.54e-06, "MEAN_MOTION_DDOT": 0}, "tle": {"line1": "1 38953U 12059A   25355.06728260 -.00000154  00000+0  00000+0 0  9995", "line2": "2 38953   3.9692  75.4251 0008270 292.3777 190.2509  1.00268834 48120"}}, "geometry": {"type": "Point", "coordinates": [-12.867597992325809, -3.978422555240808]}}, {"type": "Feature", "properties": {"norad_id": 38977, "name": "LUCH 5B (SDCM/PRN 125)", "group": "gnss", "lat": -2.662865540027193, "lon": -113.32418059598554, "alt_km": 35758.32418257777, "timestamp": "2025-12-21T11:31:43.097102+00:00", "meta": {"OBJECT_NAME": "LUCH 5B (SDCM/PRN 125)", "OBJECT_ID": "2012-061A", "EPOCH": "2025-12-20T23:25:23.453760", "MEAN_MOTION": 1.00272308, "ECCENTRICITY": 0.0006618, "INCLINATION": 10.0979, "RA_OF_ASC_NODE": 51.6268, "ARG_OF_PERICENTER": 195.3899, "MEAN_ANOMALY": 177.8059, "EPHEMERIS_TYPE": 0, "CLASSIFICATION_TYPE": "U", "NORAD_CAT_ID": 38977, "ELEMENT_SET_NO": 999, "REV_AT_EPOCH": 4782, "BSTAR": 0, "MEAN_MOTION_DOT": -1.21e-06, "MEAN_MOTION_DDOT": 0}, "tle": {"line1": "1 38977U 12061A   25354.97596590 -.00000121  00000+0  00000+0 0  9996", "line2": "2 38977  10.0979  51.6268 0006618 195.3899 177.8059  1.00272308 47826"}}, "geometry": {"type": "Point", "coordinates": [-113.32418059598554, -2.662865540027193]}}, {"type": "Feature", "properties": {"norad_id": 39155, "name": "COSMOS 2485 (747)", "group": "gnss", "lat": -34.15318763587938, "lon": 61.441562701302345, "alt_km": 19136.040232866988, "timestamp": "2025-12-21T11:31:43.097114+00:00", "meta": {"OBJECT_NAME": "COSMOS 2485 (747)", "OBJECT_ID": "2013-019A", "EPOCH": "2025-12-20T02:56:15.241632", "MEAN_MOTION": 2.1310322, "ECCENTRICITY": 0.0024876, "INCLINATION": 65.3174, "RA_OF_ASC_NODE": 79.6189, "ARG_OF_PERICENTER": 230.2075, "MEAN_ANOMALY": 129.6042, "EPHEMERIS_TYPE": 0, "CLASSIFICATION_TYPE": "U", "NORAD_CAT_ID": 39155, "ELEMENT_SET_NO": 999, "REV_AT_EPOCH": 9846, "BSTAR": 0, "MEAN_MOTION_DOT": -2e-07, "MEAN_MOTION_DDOT": 0}, "tle": {"line1": "1 39155U 13019A   25354.12239863 -.00000020  00000+0  00000+0 0  9991", "line2": "2 39155  65.3174  79.6189 0024876 230.2075 129.6042  2.13103220 98462"}}, "geometry": {"type": "Point", "coordinates": [61.441562701302345, -34.15318763587938]}}, {"type": "Feature", "properties": {"norad_id": 39166, "name": "GPS BIIF-4  (PRN 27)", "group": "gnss", "lat": -24.583958251197735, "lon": 115.12718927255818, "alt_km": 20533.773841476515, "timestamp": "2025-12-21T11:31:43.097125+00:00", "meta": {"OBJECT_NAME": "GPS BIIF-4  (PRN 27)", "OBJECT_ID": "2013-023A", "EPOCH": "2025-12-19T04:43:12.887616", "MEAN_MOTION": 2.00564719, "ECCENTRICITY": 0.0138305, "INCLINATION": 54.6464, "RA_OF_ASC_NODE": 276.3057, "ARG_OF_PERICENTER": 48.6894, "MEAN_ANOMALY": 312.5202, "EPHEMERIS_TYPE": 0, "CLASSIFICATION_TYPE": "U", "NORAD_CAT_ID": 39166, "ELEMENT_SET_NO": 999, "REV_AT_EPOCH": 9227, "BSTAR": 0, "MEAN_MOTION_DOT": -2.9e-07, "MEAN_MOTION_DDOT": 0}, "tle": {"line1": "1 39166U 13023A   25353.19667694 -.00000029  00000+0  00000+0 0  9990", "line2": "2 39166  54.6464 276.3057 0138305  48.6894 312.5202  2.00564719 92274"}}, "geometry": {"type": "Point", "coordinates": [115.12718927255818, -24.583958251197735]}}, {"type": "Feature", "properties": {"norad_id": 39199, "name": "IRNSS-1A", "group": "gnss", "lat": -33.35015265188383, "lon": -45.493037524820586, "alt_km": 35711.286289945936, "timestamp": "2025-12-21T11:31:43.097137+00:00", "meta": {"OBJECT_NAME": "IRNSS-1A", "OBJECT_ID": "2013-034A", "EPOCH": "2025-12-18T18:41:43.776960", "MEAN_MOTION": 1.00272479, "ECCENTRICITY": 0.0024472, "INCLINATION": 35.3183, "RA_OF_ASC_NODE": 66.4661, "ARG_OF_PERICENTER": 211.0525, "MEAN_ANOMALY": 145.3931, "EPHEMERIS_TYPE": 0, "CLASSIFICATION_TYPE": "U", "NORAD_CAT_ID": 39199, "ELEMENT_SET_NO": 999, "REV_AT_EPOCH": 4555, "BSTAR": 0, "MEAN_MOTION_DOT": 6.5e-07, "MEAN_MOTION_DDOT": 0}, "tle": {"line1": "1 39199U 13034A   25352.77897890  .00000065  00000+0  00000+0 0  9993", "line2": "2 39199  35.3183  66.4661 0024472 211.0525 145.3931  1.00272479 45557"}}, "geometry": {"type": "Point", "coordinates": [-45.493037524820586, -33.35015265188383]}}, {"type": "Feature", "properties": {"norad_id": 39533, "name": "GPS BIIF-5  (PRN 30)", "group": "gnss", "lat": -25.685626849130486, "lon": -2.6809778402730227, "alt_km": 19979.709060522964, "timestamp": "2025-12-21T11:31:43.097148+00:00", "meta": {"OBJECT_NAME": "GPS BIIF-5  (PRN 30)", "OBJECT_ID": "2014-008A", "EPOCH": "2025-12-20T04:30:10.868256", "MEAN_MOTION": 2.00559606, "ECCENTRICITY": 0.00799985, "INCLINATION": 53.6333, "RA_OF_ASC_NODE": 156.6204, "ARG_OF_PERICENTER": 226.3975, "MEAN_ANOMALY": 132.9264, "EPHEMERIS_TYPE": 0, "CLASSIFICATION_TYPE": "U", "NORAD_CAT_ID": 39533, "ELEMENT_SET_NO": 999, "REV_AT_EPOCH": 8609, "BSTAR": 0, "MEAN_MOTION_DOT": 6.4e-07, "MEAN_MOTION_DDOT": 0}, "tle": {"line1": "1 39533U 14008A   25354.18762579  .00000064  00000+0  00000+0 0  9998", "line2": "2 39533  53.6333 156.6204 0079998 226.3975 132.9264  2.00559606 86091"}}, "geometry": {"type": "Point", "coordinates": [-2.6809778402730227, -25.685626849130486]}}, {"type": "Feature", "properties": {"norad_id": 39617, "name": "ASTRA 5B (EGNOS/PRN 123)", "group": "gnss", "lat": -0.06797659707977434, "lon": -73.26626640391056, "alt_km": 35768.01007943129, "timestamp": "2025-12-21T11:31:43.097160+00:00", "meta": {"OBJECT_NAME": "ASTRA 5B (EGNOS/PRN 123)", "OBJECT_ID": "2014-011B", "EPOCH": "2025-12-21T03:07:38.663040", "MEAN_MOTION": 1.00269774, "ECCENTRICITY": 0.0004449, "INCLINATION": 0.0434, "RA_OF_ASC_NODE": 1.7031, "ARG_OF_PERICENTER": 275.7187, "MEAN_ANOMALY": 242.9509, "EPHEMERIS_TYPE": 0, "CLASSIFICATION_TYPE": "U", "NORAD_CAT_ID": 39617, "ELEMENT_SET_NO": 999, "REV_AT_EPOCH": 4288, "BSTAR": 0, "MEAN_MOTION_DOT": 1.6e-06, "MEAN_MOTION_DDOT": 0}, "tle": {"line1": "1 39617U 14011B   25355.13030860  .00000160  00000+0  00000+0 0  9999", "line2": "2 39617   0.0434   1.7031 0004449 275.7187 242.9509  1.00269774 42888"}}, "geometry": {"type": "Point", "coordinates": [-73.26626640391056, -0.06797659707977434]}}]}